[
  {
    "name": "ONEWEB-0287",
    "noradId": "49077",
    "line1": "1 49077U 21075C   26181.45547416 -.00000001  00000+0 -35161-4 0  9998",
    "line2": "2 49077  87.9132   3.2258 0002137  80.7753 279.3620 13.17649945235370"
  },
  {
    "name": "ONEWEB-0288",
    "noradId": "49078",
    "line1": "1 49078U 21075D   26181.89391644 -.00000117  00000+0 -36066-3 0  9999",
    "line2": "2 49078  87.8960 347.9292 0002056  90.0923 270.0441 13.12443646236980"
  },
  {
    "name": "ONEWEB-0289",
    "noradId": "49079",
    "line1": "1 49079U 21075E   26181.94977496  .00000080  00000+0  17377-3 0  9992",
    "line2": "2 49079  87.9138   3.1449 0002112  99.4307 260.7063 13.17648741236014"
  },
  {
    "name": "ONEWEB-0290",
    "noradId": "49080",
    "line1": "1 49080U 21075F   26181.92291922 -.00000024  00000+0 -94503-4 0  9992",
    "line2": "2 49080  87.9140   3.1225 0002170 102.2083 257.9292 13.17649670235427"
  },
  {
    "name": "ONEWEB-0291",
    "noradId": "49081",
    "line1": "1 49081U 21075G   26181.90771633  .00000853  00000+0  21648-2 0  9999",
    "line2": "2 49081  87.9146   3.1302 0002053  91.5519 268.5848 13.17644441235419"
  },
  {
    "name": "ONEWEB-0293",
    "noradId": "49082",
    "line1": "1 49082U 21075H   26181.93303715  .00000007  00000+0 -14789-4 0  9997",
    "line2": "2 49082  87.9132   3.1302 0001981  92.3887 267.7471 13.17648829235441"
  },
  {
    "name": "ONEWEB-0294",
    "noradId": "49083",
    "line1": "1 49083U 21075J   26181.44328319  .00000311  00000+0  82861-3 0  9993",
    "line2": "2 49083  87.8955 348.0228 0002057 100.6135 259.5225 13.12443240236314"
  },
  {
    "name": "ONEWEB-0295",
    "noradId": "49084",
    "line1": "1 49084U 21075K   26181.93219801  .00000011  00000+0 -45683-5 0  9994",
    "line2": "2 49084  87.9132   3.1344 0002143  85.4162 274.7214 13.17649108235409"
  },
  {
    "name": "ONEWEB-0296",
    "noradId": "49085",
    "line1": "1 49085U 21075L   26181.95660816 -.00000399  00000+0 -11442-2 0  9996",
    "line2": "2 49085  87.8960 347.9282 0002162  89.3626 270.7750 13.12442904236386"
  },
  {
    "name": "ONEWEB-0297",
    "noradId": "49086",
    "line1": "1 49086U 21075M   26181.91086968  .00000441  00000+0  11905-2 0  9993",
    "line2": "2 49086  87.8944 347.9466 0001916  90.3296 269.8052 13.12441974236980"
  },
  {
    "name": "ONEWEB-0298",
    "noradId": "49087",
    "line1": "1 49087U 21075N   26181.93656266  .00000038  00000+0  63651-4 0  9999",
    "line2": "2 49087  87.9134   3.1319 0001813  86.4295 273.7044 13.17648198235438"
  },
  {
    "name": "ONEWEB-0299",
    "noradId": "49088",
    "line1": "1 49088U 21075P   26181.93809011  .00000049  00000+0  93088-4 0  9997",
    "line2": "2 49088  87.9141   3.1129 0001966  85.4800 274.6556 13.17650413235415"
  },
  {
    "name": "ONEWEB-0300",
    "noradId": "49089",
    "line1": "1 49089U 21075Q   26181.90324324  .00000299  00000+0  79449-3 0  9995",
    "line2": "2 49089  87.8956 347.9289 0001578  82.6661 277.4647 13.12442737237000"
  },
  {
    "name": "ONEWEB-0301",
    "noradId": "49090",
    "line1": "1 49090U 21075R   26181.96338089 -.00000242  00000+0 -70864-3 0  9998",
    "line2": "2 49090  87.8954 347.9147 0001512  87.4636 272.6666 13.12443527236371"
  },
  {
    "name": "ONEWEB-0302",
    "noradId": "49091",
    "line1": "1 49091U 21075S   26181.49239747 -.00000471  00000+0 -13440-2 0  9998",
    "line2": "2 49091  87.8957 348.0209 0002128  97.6678 262.4692 13.12442598236293"
  },
  {
    "name": "ONEWEB-0304",
    "noradId": "49092",
    "line1": "1 49092U 21075T   26181.45716420  .00000074  00000+0  15805-3 0  9998",
    "line2": "2 49092  87.9134   3.2299 0002004  86.7660 273.3701 13.17650250235320"
  },
  {
    "name": "ONEWEB-0305",
    "noradId": "49093",
    "line1": "1 49093U 21075U   26181.45041746  .00000056  00000+0  11059-3 0  9998",
    "line2": "2 49093  87.9141   3.2166 0002165  81.6574 278.4803 13.17650247235356"
  },
  {
    "name": "ONEWEB-0308",
    "noradId": "49094",
    "line1": "1 49094U 21075V   26181.86680709 -.00000358  00000+0 -10296-2 0  9990",
    "line2": "2 49094  87.8958 347.9383 0001817  93.0869 267.0467 13.12441125236357"
  },
  {
    "name": "ONEWEB-0309",
    "noradId": "49095",
    "line1": "1 49095U 21075W   26181.90941414  .00000025  00000+0  31900-4 0  9995",
    "line2": "2 49095  87.9134   3.1324 0002246  98.5524 261.5862 13.17649839235383"
  },
  {
    "name": "ONEWEB-0310",
    "noradId": "49096",
    "line1": "1 49096U 21075X   26181.95829910 -.00000361  00000+0 -10388-2 0  9997",
    "line2": "2 49096  87.8948 347.9405 0001835  93.6537 266.4801 13.12443317236991"
  },
  {
    "name": "ONEWEB-0311",
    "noradId": "49097",
    "line1": "1 49097U 21075Y   26181.91615165 -.00000002  00000+0 -38345-4 0  9996",
    "line2": "2 49097  87.9135   3.1310 0002039  77.3794 282.7566 13.17651075235432"
  },
  {
    "name": "ONEWEB-0312",
    "noradId": "49098",
    "line1": "1 49098U 21075Z   26181.93134388  .00000014  00000+0  36136-5 0  9990",
    "line2": "2 49098  87.9132   3.1384 0002171  86.8859 273.2521 13.17648191235414"
  },
  {
    "name": "ONEWEB-0313",
    "noradId": "49099",
    "line1": "1 49099U 21075AA  26181.93627542  .00000017  00000+0  10214-4 0  9991",
    "line2": "2 49099  87.9129   3.1427 0001917  85.3867 274.7483 13.17649052235408"
  },
  {
    "name": "ONEWEB-0314",
    "noradId": "49100",
    "line1": "1 49100U 21075AB  26181.90266900  .00000047  00000+0  89153-4 0  9999",
    "line2": "2 49100  87.9144   3.1239 0002231  85.7085 274.4302 13.17650051235379"
  },
  {
    "name": "ONEWEB-0315",
    "noradId": "49101",
    "line1": "1 49101U 21075AC  26181.85495495  .00000011  00000+0 -39451-5 0  9996",
    "line2": "2 49101  87.8957 347.9264 0001837  80.5191 279.6146 13.12440819236963"
  },
  {
    "name": "ONEWEB-0316",
    "noradId": "49102",
    "line1": "1 49102U 21075AD  26181.81658121  .00000552  00000+0  13681-2 0  9993",
    "line2": "2 49102  87.9180 332.7444 0001867  96.2848 263.8497 13.18679526239008"
  },
  {
    "name": "ONEWEB-0317",
    "noradId": "49103",
    "line1": "1 49103U 21075AE  26181.85834234 -.00000105  00000+0 -32612-3 0  9991",
    "line2": "2 49103  87.8958 347.9496 0002051 113.8270 246.3074 13.12441075236988"
  },
  {
    "name": "ONEWEB-0318",
    "noradId": "49104",
    "line1": "1 49104U 21075AF  26181.96496648 -.00000079  00000+0 -23269-3 0  9995",
    "line2": "2 49104  87.9182 332.7171 0001880  89.3683 270.7664 13.18685497238987"
  },
  {
    "name": "ONEWEB-0319",
    "noradId": "49105",
    "line1": "1 49105U 21075AG  26181.91784619 -.00000007  00000+0 -51933-4 0  9990",
    "line2": "2 49105  87.9131   3.1355 0001885  72.9066 287.2272 13.17649957235416"
  },
  {
    "name": "ONEWEB-0323",
    "noradId": "49106",
    "line1": "1 49106U 21075AH  26181.91595258  .00000421  00000+0  11355-2 0  9990",
    "line2": "2 49106  87.8957 347.9192 0002021  77.5173 282.6181 13.12441529236355"
  }
]