OBJECT_NAME,OBJECT_ID,EPOCH,MEAN_MOTION,ECCENTRICITY,INCLINATION,RA_OF_ASC_NODE,ARG_OF_PERICENTER,MEAN_ANOMALY,EPHEMERIS_TYPE,CLASSIFICATION_TYPE,NORAD_CAT_ID,ELEMENT_SET_NO,REV_AT_EPOCH,BSTAR,MEAN_MOTION_DOT,MEAN_MOTION_DDOT
ONEWEB-0287,2021-075C,2026-06-30T10:55:52.967424,13.17649945,.00021377,87.9132,3.2258,80.7753,279.3620,0,U,49077,999,23537,-.35160997E-4,-.1E-7,0
ONEWEB-0288,2021-075D,2026-06-30T21:27:14.380416,13.12443646,.00020567,87.8960,347.9292,90.0923,270.0441,0,U,49078,999,23698,-.36065858E-3,-.117E-5,0
ONEWEB-0289,2021-075E,2026-06-30T22:47:40.556544,13.17648741,.00021129,87.9138,3.1449,99.4307,260.7063,0,U,49079,999,23601,.17376684E-3,.8E-6,0
ONEWEB-0290,2021-075F,2026-06-30T22:09:00.220608,13.17649670,.00021703,87.9140,3.1225,102.2083,257.9292,0,U,49080,999,23542,-.94502597E-4,-.24E-6,0
ONEWEB-0291,2021-075G,2026-06-30T21:47:06.690912,13.17644441,.00020534,87.9146,3.1302,91.5519,268.5848,0,U,49081,999,23541,.21647595E-2,.853E-5,0
ONEWEB-0293,2021-075H,2026-06-30T22:23:34.409760,13.17648829,.00019814,87.9132,3.1302,92.3887,267.7471,0,U,49082,999,23544,-.14788678E-4,.7E-7,0
ONEWEB-0294,2021-075J,2026-06-30T10:38:19.667616,13.12443240,.00020574,87.8955,348.0228,100.6135,259.5225,0,U,49083,999,23631,.82861168E-3,.311E-5,0
ONEWEB-0295,2021-075K,2026-06-30T22:22:21.908064,13.17649108,.0002143,87.9132,3.1344,85.4162,274.7214,0,U,49084,999,23540,-.4568304E-5,.11E-6,0
ONEWEB-0296,2021-075L,2026-06-30T22:57:30.945024,13.12442904,.00021626,87.8960,347.9282,89.3626,270.7750,0,U,49085,999,23638,-.11442041E-2,-.399E-5,0
ONEWEB-0297,2021-075M,2026-06-30T21:51:39.140352,13.12441974,.00019165,87.8944,347.9466,90.3296,269.8052,0,U,49086,999,23698,.11905379E-2,.441E-5,0
ONEWEB-0298,2021-075N,2026-06-30T22:28:39.013824,13.17648198,.00018137,87.9134,3.1319,86.4295,273.7044,0,U,49087,999,23543,.63651158E-4,.38E-6,0
ONEWEB-0299,2021-075P,2026-06-30T22:30:50.985504,13.17650413,.00019667,87.9141,3.1129,85.4800,274.6556,0,U,49088,999,23541,.93087629E-4,.49E-6,0
ONEWEB-0300,2021-075Q,2026-06-30T21:40:40.215936,13.12442737,.00015784,87.8956,347.9289,82.6661,277.4647,0,U,49089,999,23700,.79448664E-3,.299E-5,0
ONEWEB-0301,2021-075R,2026-06-30T23:07:16.108896,13.12443527,.00015125,87.8954,347.9147,87.4636,272.6666,0,U,49090,999,23637,-.70863809E-3,-.242E-5,0
ONEWEB-0302,2021-075S,2026-06-30T11:49:03.141408,13.12442598,.00021285,87.8957,348.0209,97.6678,262.4692,0,U,49091,999,23629,-.13439873E-2,-.471E-5,0
ONEWEB-0304,2021-075T,2026-06-30T10:58:18.986880,13.17650250,.0002004,87.9134,3.2299,86.7660,273.3701,0,U,49092,999,23532,.1580542E-3,.74E-6,0
ONEWEB-0305,2021-075U,2026-06-30T10:48:36.068544,13.17650247,.00021657,87.9141,3.2166,81.6574,278.4803,0,U,49093,999,23535,.1105923E-3,.56E-6,0
ONEWEB-0308,2021-075V,2026-06-30T20:48:12.132576,13.12441125,.00018172,87.8958,347.9383,93.0869,267.0467,0,U,49094,999,23635,-.10296114E-2,-.358E-5,0
ONEWEB-0309,2021-075W,2026-06-30T21:49:33.381696,13.17649839,.00022462,87.9134,3.1324,98.5524,261.5862,0,U,49095,999,23538,.31900175E-4,.25E-6,0
ONEWEB-0310,2021-075X,2026-06-30T22:59:57.042240,13.12443317,.00018356,87.8948,347.9405,93.6537,266.4801,0,U,49096,999,23699,-.10387869E-2,-.361E-5,0
ONEWEB-0311,2021-075Y,2026-06-30T21:59:15.502560,13.17651075,.0002039,87.9135,3.1310,77.3794,282.7566,0,U,49097,999,23543,-.38344992E-4,-.2E-7,0
ONEWEB-0312,2021-075Z,2026-06-30T22:21:08.111232,13.17648191,.00021716,87.9132,3.1384,86.8859,273.2521,0,U,49098,999,23541,.3613557E-5,.14E-6,0
ONEWEB-0313,2021-075AA,2026-06-30T22:28:14.196288,13.17649052,.00019176,87.9129,3.1427,85.3867,274.7483,0,U,49099,999,23540,.10213704E-4,.17E-6,0
ONEWEB-0314,2021-075AB,2026-06-30T21:39:50.601600,13.17650051,.00022314,87.9144,3.1239,85.7085,274.4302,0,U,49100,999,23537,.89153326E-4,.47E-6,0
ONEWEB-0315,2021-075AC,2026-06-30T20:31:08.107680,13.12440819,.00018372,87.8957,347.9264,80.5191,279.6146,0,U,49101,999,23696,-.3945144E-5,.11E-6,0
ONEWEB-0316,2021-075AD,2026-06-30T19:35:52.616544,13.18679526,.00018678,87.9180,332.7444,96.2848,263.8497,0,U,49102,999,23900,.13681006E-2,.552E-5,0
ONEWEB-0317,2021-075AE,2026-06-30T20:36:00.778176,13.12441075,.00020516,87.8958,347.9496,113.8270,246.3074,0,U,49103,999,23698,-.32611694E-3,-.105E-5,0
ONEWEB-0318,2021-075AF,2026-06-30T23:09:33.103872,13.18685497,.00018803,87.9182,332.7171,89.3683,270.7664,0,U,49104,999,23898,-.23268657E-3,-.79E-6,0
ONEWEB-0319,2021-075AG,2026-06-30T22:01:41.910816,13.17649957,.00018852,87.9131,3.1355,72.9066,287.2272,0,U,49105,999,23541,-.51933183E-4,-.7E-7,0
ONEWEB-0323,2021-075AH,2026-06-30T21:58:58.302912,13.12441529,.00020217,87.8957,347.9192,77.5173,282.6181,0,U,49106,999,23635,.11354657E-2,.421E-5,0
